OBJECT_NAME,OBJECT_ID,EPOCH,MEAN_MOTION,ECCENTRICITY,INCLINATION,RA_OF_ASC_NODE,ARG_OF_PERICENTER,MEAN_ANOMALY,EPHEMERIS_TYPE,CLASSIFICATION_TYPE,NORAD_CAT_ID,ELEMENT_SET_NO,REV_AT_EPOCH,BSTAR,MEAN_MOTION_DOT,MEAN_MOTION_DDOT
H-2A R/B,2006-002B,2026-06-27T22:19:15.734208,15.18200201,.0049892,98.2567,335.7321,225.0170,134.7013,0,U,28932,999,11115,.37428317E-3,.7825E-4,0
RESURS-DK 1,2006-021A,2026-06-27T19:26:28.816800,15.13259446,.00067322,69.9338,312.0550,286.8936,73.1492,0,U,29228,999,10418,.13443828E-3,.2289E-4,0
CZ-4B R/B,2006-046C,2026-06-27T20:48:23.643648,15.17858427,.00311526,97.5450,223.4409,243.6964,116.1068,0,U,29507,999,7675,.21184217E-3,.4272E-4,0
CZ-2C R/B,2007-010B,2026-06-27T20:07:28.913376,14.20278302,.00583895,98.4108,286.6689,335.0558,24.7801,0,U,31114,999,99535,.47877821E-4,.63E-6,0
COSMO-SKYMED 1,2007-023A,2026-06-27T23:05:55.299840,14.97157259,.00017403,97.8859,10.9092,87.9129,272.2291,0,U,31598,999,3140,.23370643E-3,.264E-4,0
COSMOS 2428,2007-029A,2026-06-27T20:00:47.298528,14.12927949,.00071248,70.9373,332.1225,114.6310,245.5554,0,U,31792,999,97965,.28888689E-4,.6E-7,0
SL-16 R/B,2007-029B,2026-06-27T19:16:46.233696,14.14854523,.00024507,70.9770,300.9118,263.4774,250.3844,0,U,31793,999,98094,-.96097228E-4,-.233E-5,0
KORONAS-FOTON,2009-003A,2026-06-27T22:53:10.379040,15.45942072,.00124863,82.4284,161.0263,114.0611,246.1946,0,U,33504,999,96276,.26289572E-3,.12875E-3,0
CZ-2C R/B,2011-030B,2026-06-27T20:11:46.165920,14.81496433,.00521286,97.8658,134.0355,353.5801,35.3606,0,U,37731,999,80640,.16186449E-3,.1243E-4,0
H-2A R/B,2012-025E,2026-06-27T20:39:00.249984,14.95764979,.00429492,98.4819,154.8858,313.2641,46.4996,0,U,38341,999,76468,.23693943E-3,.2619E-4,0
SHIJIAN-16 (SJ-16),2013-057A,2026-06-27T23:07:44.751360,14.92622498,.00164976,74.9728,336.2711,205.6414,154.3958,0,U,39358,999,68795,.70620225E-4,.699E-5,0
SL-4 R/B,2014-021B,2026-06-27T10:23:13.395552,15.42148457,.00907336,51.6029,160.5703,143.3381,217.3859,0,U,39679,999,67319,.21611127E-3,.1047E-3,0
ALOS-2,2014-029A,2026-06-27T23:03:01.140768,14.79468442,.0001594,97.9224,275.9697,90.1797,269.9598,0,U,39766,999,65317,.19140824E-3,.1378E-4,0
YAOGAN-29,2015-069A,2026-06-27T23:20:39.278976,14.83093980,.00019918,98.0027,207.6220,38.9108,321.2249,0,U,41038,999,57222,.85906689E-4,.645E-5,0
ASTRO-H (HITOMI),2016-012A,2026-06-27T20:54:41.466528,15.10557496,.00096864,31.0006,5.1845,0.2040,359.8601,0,U,41337,999,56890,.15451739E-3,.271E-4,0
HXMT (HUIYAN),2017-034A,2026-06-27T22:07:23.792160,15.18549112,.00322286,43.0136,123.2633,215.2925,144.5789,0,U,42758,999,49929,.22242396E-3,.4498E-4,0
SAOCOM 1A,2018-076A,2026-06-27T22:30:21.053952,14.82156502,.00015596,97.8883,5.5301,81.2406,278.8984,0,U,43641,999,41769,.96054143E-4,.713E-5,0
H-2A R/B,2018-084L,2026-06-27T22:36:00.220608,15.45561861,.00221491,98.8567,60.1843,3.4808,356.6587,0,U,43682,999,42278,.40375119E-3,.19489E-3,0
SAOCOM 1B,2020-059A,2026-06-27T23:15:14.808960,14.82148391,.00016222,97.8887,4.6566,81.1503,278.9894,0,U,46265,999,31508,.92425338E-4,.683E-5,0
CSS (TIANHE),2021-035A,2026-06-27T23:32:41.854272,15.61277933,.00082353,41.4688,256.2927,167.8964,192.2074,0,U,48274,999,29485,.24506895E-3,.21156E-3,0
COSMOS 2550,2021-056A,2026-06-27T23:29:41.483040,15.33812765,.00083343,67.1437,67.2622,269.7094,90.3106,0,U,48865,999,28037,.1522595E-3,.4818E-4,0
CZ-2C R/B,2022-058K,2026-06-27T12:58:07.833216,15.62566835,.00318442,50.1851,109.6189,310.2309,49.5880,0,U,52794,999,22726,.37844562E-3,.34981E-3,0
CZ-2C R/B,2022-132E,2026-06-27T23:21:18.570240,15.72816060,.00137863,97.2890,186.4873,49.9564,310.2907,0,U,54039,999,20764,.44049066E-3,.59979E-3,0
GSLV R/B,2022-138AN,2026-06-27T21:04:11.029152,14.97305838,.00240037,87.3811,129.3943,108.2601,252.1246,0,U,54149,999,20041,.27053795E-3,.3183E-4,0
XRISM,2023-137A,2026-06-27T16:24:20.189664,15.12552843,.0007809,31.0027,291.6076,69.4480,290.6997,0,U,57800,999,15445,.25251469E-3,.4613E-4,0
ACS3,2024-077B,2026-06-27T12:55:29.040384,13.94525140,.00981095,97.1675,95.0246,55.4134,305.6240,0,U,59588,999,10948,.6032734E-3,.81E-5,0
CZ-8A R/B,2025-231K,2026-06-27T17:49:36.260256,14.30157562,.01164939,50.0056,354.4079,261.1551,97.6160,0,U,66004,999,3645,.57512216E-4,-.2E-7,0
SZ-21 MODULE,2025-246C,2026-06-27T12:56:45.981312,15.77283181,.00049623,41.4713,242.8104,74.6572,285.4821,0,U,66515,999,3537,.25771827E-3,.43597E-3,0
