H-2A R/B                
1 28932U 06002B   26178.93004322  .00007825  00000+0  37428-3 0  9997
2 28932  98.2567 335.7321 0049892 225.0170 134.7013 15.18200201111154
RESURS-DK 1             
1 29228U 06021A   26178.81005575  .00002289  00000+0  13444-3 0  9996
2 29228  69.9338 312.0550 0006732 286.8936  73.1492 15.13259446104189
CZ-4B R/B               
1 29507U 06046C   26178.86694032  .00004272  00000+0  21184-3 0  9994
2 29507  97.5450 223.4409 0031152 243.6964 116.1068 15.17858427 76751
CZ-2C R/B               
1 31114U 07010B   26178.83852909  .00000063  00000+0  47878-4 0  9992
2 31114  98.4108 286.6689 0058389 335.0558  24.7801 14.20278302995351
COSMO-SKYMED 1          
1 31598U 07023A   26178.96244560  .00002640  00000+0  23371-3 0  9998
2 31598  97.8859  10.9092 0001740  87.9129 272.2291 14.97157259 31406
COSMOS 2428             
1 31792U 07029A   26178.83388077  .00000006  00000+0  28889-4 0  9992
2 31792  70.9373 332.1225 0007124 114.6310 245.5554 14.12927949979655
SL-16 R/B               
1 31793U 07029B   26178.80331289 -.00000233  00000+0 -96097-4 0  9993
2 31793  70.9770 300.9118 0002450 263.4774 250.3844 14.14854523980944
KORONAS-FOTON           
1 33504U 09003A   26178.95359235  .00012875  00000+0  26290-3 0  9996
2 33504  82.4284 161.0263 0012486 114.0611 246.1946 15.45942072962760
CZ-2C R/B               
1 37731U 11030B   26178.84150655  .00001243  00000+0  16186-3 0  9998
2 37731  97.8658 134.0355 0052128 353.5801  35.3606 14.81496433806404
H-2A R/B                
1 38341U 12025E   26178.86041956  .00002619  00000+0  23694-3 0  9996
2 38341  98.4819 154.8858 0042949 313.2641  46.4996 14.95764979764687
SHIJIAN-16 (SJ-16)      
1 39358U 13057A   26178.96371240  .00000699  00000+0  70620-4 0  9992
2 39358  74.9728 336.2711 0016497 205.6414 154.3958 14.92622498687956
SL-4 R/B                
1 39679U 14021B   26178.43279393  .00010470  00000+0  21611-3 0  9991
2 39679  51.6029 160.5703 0090733 143.3381 217.3859 15.42148457673198
ALOS-2                  
1 39766U 14029A   26178.96042987  .00001378  00000+0  19141-3 0  9993
2 39766  97.9224 275.9697 0001594  90.1797 269.9598 14.79468442653172
YAOGAN-29               
1 41038U 15069A   26178.97267684  .00000645  00000+0  85907-4 0  9997
2 41038  98.0027 207.6220 0001991  38.9108 321.2249 14.83093980572228
ASTRO-H (HITOMI)        
1 41337U 16012A   26178.87131327  .00002710  00000+0  15452-3 0  9993
2 41337  31.0006   5.1845 0009686   0.2040 359.8601 15.10557496568901
HXMT (HUIYAN)           
1 42758U 17034A   26178.92180315  .00004498  00000+0  22242-3 0  9993
2 42758  43.0136 123.2633 0032228 215.2925 144.5789 15.18549112499296
SAOCOM 1A               
1 43641U 18076A   26178.93774368  .00000713  00000+0  96054-4 0  9999
2 43641  97.8883   5.5301 0001559  81.2406 278.8984 14.82156502417695
H-2A R/B                
1 43682U 18084L   26178.94166922  .00019489  00000+0  40375-3 0  9999
2 43682  98.8567  60.1843 0022149   3.4808 356.6587 15.45561861422786
SAOCOM 1B               
1 46265U 20059A   26178.96892140  .00000683  00000+0  92425-4 0  9994
2 46265  97.8887   4.6566 0001622  81.1503 278.9894 14.82148391315083
CSS (TIANHE)            
1 48274U 21035A   26178.98103998  .00021156  00000+0  24507-3 0  9992
2 48274  41.4688 256.2927 0008235 167.8964 192.2074 15.61277933294857
COSMOS 2550             
1 48865U 21056A   26178.97895235  .00004818  00000+0  15226-3 0  9996
2 48865  67.1437  67.2622 0008334 269.7094  90.3106 15.33812765280371
CZ-2C R/B               
1 52794U 22058K   26178.54036844  .00034981  00000+0  37845-3 0  9996
2 52794  50.1851 109.6189 0031844 310.2309  49.5880 15.62566835227261
CZ-2C R/B               
1 54039U 22132E   26178.97313160  .00059979  00000+0  44049-3 0  9997
2 54039  97.2890 186.4873 0013786  49.9564 310.2907 15.72816060207644
GSLV R/B                
1 54149U 22138AN  26178.87790543  .00003183  00000+0  27054-3 0  9991
2 54149  87.3811 129.3943 0024003 108.2601 252.1246 14.97305838200418
XRISM                   
1 57800U 23137A   26178.68356701  .00004613  00000+0  25251-3 0  9997
2 57800  31.0027 291.6076 0007809  69.4480 290.6997 15.12552843154458
ACS3                    
1 59588U 24077B   26178.53853056  .00000810  00000+0  60327-3 0  9993
2 59588  97.1675  95.0246 0098109  55.4134 305.6240 13.94525140109483
CZ-8A R/B               
1 66004U 25231K   26178.74278079 -.00000002  00000+0  57512-4 0  9993
2 66004  50.0056 354.4079 0116493 261.1551  97.6160 14.30157562 36452
SZ-21 MODULE            
1 66515U 25246C   26178.53942108  .00043597  00000+0  25772-3 0  9991
2 66515  41.4713 242.8104 0004962  74.6572 285.4821 15.77283181 35379
